{"type": "FeatureCollection", "features": [ {"type": "Feature", "properties": {"norad_id": 66601, "name": "STARLINK-35978", "group": "last-30-days", "lat": 14.189824415174108, "lon": 55.07364358558282, "alt_km": 332.45319828473384, "timestamp": "2025-12-02T23:34:14.292142+00:00", "meta": {"OBJECT_NAME": "STARLINK-35978", "OBJECT_ID": "2025-270P", "EPOCH": "2025-12-02T12:00:05.998752", "MEAN_MOTION": 15.80517576, "ECCENTRICITY": 0.0001857, "INCLINATION": 42.9988, "RA_OF_ASC_NODE": 253.7637, "ARG_OF_PERICENTER": 264.2807, "MEAN_ANOMALY": 30.0802, "EPHEMERIS_TYPE": 0, "CLASSIFICATION_TYPE": "U", "NORAD_CAT_ID": 66601, "ELEMENT_SET_NO": 999, "REV_AT_EPOCH": 259, "BSTAR": -0.01005, "MEAN_MOTION_DOT": -0.01743634, "MEAN_MOTION_DDOT": 0}, "tle": {"line1": "1 66601U 25270P   25336.50006943 -.01743634  00000+0 -10050-1 0  9997", "line2": "2 66601  42.9988 253.7637 0001857 264.2807  30.0802 15.80517576  2598"}}, "geometry": {"type": "Point", "coordinates": [55.07364358558282, 14.189824415174108]}}, {"type": "Feature", "properties": {"norad_id": 66602, "name": "STARLINK-36050", "group": "last-30-days", "lat": 12.804342491511132, "lon": 56.696052311925236, "alt_km": 332.5525900856592, "timestamp": "2025-12-02T23:34:14.292152+00:00", "meta": {"OBJECT_NAME": "STARLINK-36050", "OBJECT_ID": "2025-270Q", "EPOCH": "2025-12-02T12:00:05.998752", "MEAN_MOTION": 15.80498913, "ECCENTRICITY": 0.000177, "INCLINATION": 42.9988, "RA_OF_ASC_NODE": 253.7583, "ARG_OF_PERICENTER": 258.3414, "MEAN_ANOMALY": 38.1786, "EPHEMERIS_TYPE": 0, "CLASSIFICATION_TYPE": "U", "NORAD_CAT_ID": 66602, "ELEMENT_SET_NO": 999, "REV_AT_EPOCH": 265, "BSTAR": -0.010216, "MEAN_MOTION_DOT": -0.01767563, "MEAN_MOTION_DDOT": 0}, "tle": {"line1": "1 66602U 25270Q   25336.50006943 -.01767563  00000+0 -10216-1 0  9999", "line2": "2 66602  42.9988 253.7583 0001770 258.3414  38.1786 15.80498913  2651"}}, "geometry": {"type": "Point", "coordinates": [56.696052311925236, 12.804342491511132]}}, {"type": "Feature", "properties": {"norad_id": 66603, "name": "STARLINK-36048", "group": "last-30-days", "lat": 11.387497402342799, "lon": 58.32516232449837, "alt_km": 332.9093249226826, "timestamp": "2025-12-02T23:34:14.292164+00:00", "meta": {"OBJECT_NAME": "STARLINK-36048", "OBJECT_ID": "2025-270R", "EPOCH": "2025-12-02T12:00:05.998752", "MEAN_MOTION": 15.80469931, "ECCENTRICITY": 0.000175, "INCLINATION": 42.9991, "RA_OF_ASC_NODE": 253.7527, "ARG_OF_PERICENTER": 259.9205, "MEAN_ANOMALY": 38.8065, "EPHEMERIS_TYPE": 0, "CLASSIFICATION_TYPE": "U", "NORAD_CAT_ID": 66603, "ELEMENT_SET_NO": 999, "REV_AT_EPOCH": 265, "BSTAR": -0.010372, "MEAN_MOTION_DOT": -0.01789087, "MEAN_MOTION_DDOT": 0}, "tle": {"line1": "1 66603U 25270R   25336.50006943 -.01789087  00000+0 -10372-1 0  9998", "line2": "2 66603  42.9991 253.7527 0001750 259.9205  38.8065 15.80469931  2652"}}, "geometry": {"type": "Point", "coordinates": [58.32516232449837, 11.387497402342799]}}, {"type": "Feature", "properties": {"norad_id": 66604, "name": "STARLINK-35977", "group": "last-30-days", "lat": 10.12607852797655, "lon": 59.75334849907819, "alt_km": 332.95234242189053, "timestamp": "2025-12-02T23:34:14.292173+00:00", "meta": {"OBJECT_NAME": "STARLINK-35977", "OBJECT_ID": "2025-270S", "EPOCH": "2025-12-02T12:00:05.998752", "MEAN_MOTION": 15.80486598, "ECCENTRICITY": 0.000182, "INCLINATION": 42.9992, "RA_OF_ASC_NODE": 253.7481, "ARG_OF_PERICENTER": 257.7588, "MEAN_ANOMALY": 42.8324, "EPHEMERIS_TYPE": 0, "CLASSIFICATION_TYPE": "U", "NORAD_CAT_ID": 66604, "ELEMENT_SET_NO": 999, "REV_AT_EPOCH": 275, "BSTAR": -0.010383, "MEAN_MOTION_DOT": -0.01792114, "MEAN_MOTION_DDOT": 0}, "tle": {"line1": "1 66604U 25270S   25336.50006943 -.01792114  00000+0 -10383-1 0  9996", "line2": "2 66604  42.9992 253.7481 0001820 257.7588  42.8324 15.80486598  2753"}}, "geometry": {"type": "Point", "coordinates": [59.75334849907819, 10.12607852797655]}}, {"type": "Feature", "properties": {"norad_id": 66605, "name": "STARLINK-36052", "group": "last-30-days", "lat": 8.84349499090262, "lon": 61.18674202824135, "alt_km": 333.36270093944313, "timestamp": "2025-12-02T23:34:14.292186+00:00", "meta": {"OBJECT_NAME": "STARLINK-36052", "OBJECT_ID": "2025-270T", "EPOCH": "2025-12-02T12:00:05.998752", "MEAN_MOTION": 15.80489529, "ECCENTRICITY": 0.0001693, "INCLINATION": 42.9991, "RA_OF_ASC_NODE": 253.7432, "ARG_OF_PERICENTER": 265.267, "MEAN_ANOMALY": 37.2503, "EPHEMERIS_TYPE": 0, "CLASSIFICATION_TYPE": "U", "NORAD_CAT_ID": 66605, "ELEMENT_SET_NO": 999, "REV_AT_EPOCH": 275, "BSTAR": -0.010521, "MEAN_MOTION_DOT": -0.01813075, "MEAN_MOTION_DDOT": 0}, "tle": {"line1": "1 66605U 25270T   25336.50006943 -.01813075  00000+0 -10521-1 0  9991", "line2": "2 66605  42.9991 253.7432 0001693 265.2670  37.2503 15.80489529  2757"}}, "geometry": {"type": "Point", "coordinates": [61.18674202824135, 8.84349499090262]}}, {"type": "Feature", "properties": {"norad_id": 66606, "name": "STARLINK-36063", "group": "last-30-days", "lat": 6.109437099752132, "lon": 64.1922743373914, "alt_km": 333.5270033580773, "timestamp": "2025-12-02T23:34:14.292198+00:00", "meta": {"OBJECT_NAME": "STARLINK-36063", "OBJECT_ID": "2025-270U", "EPOCH": "2025-12-02T12:00:05.998752", "MEAN_MOTION": 15.8048076, "ECCENTRICITY": 0.0001953, "INCLINATION": 42.9992, "RA_OF_ASC_NODE": 253.7329, "ARG_OF_PERICENTER": 259.182, "MEAN_ANOMALY": 47.4101, "EPHEMERIS_TYPE": 0, "CLASSIFICATION_TYPE": "U", "NORAD_CAT_ID": 66606, "ELEMENT_SET_NO": 999, "REV_AT_EPOCH": 275, "BSTAR": -0.010564, "MEAN_MOTION_DOT": -0.01819227, "MEAN_MOTION_DDOT": 0}, "tle": {"line1": "1 66606U 25270U   25336.50006943 -.01819227  00000+0 -10564-1 0  9994", "line2": "2 66606  42.9992 253.7329 0001953 259.1820  47.4101 15.80480760  2757"}}, "geometry": {"type": "Point", "coordinates": [64.1922743373914, 6.109437099752132]}}, {"type": "Feature", "properties": {"norad_id": 66607, "name": "STARLINK-35993", "group": "last-30-days", "lat": 7.414433846464037, "lon": 62.76535658814528, "alt_km": 333.28900776635965, "timestamp": "2025-12-02T23:34:14.292208+00:00", "meta": {"OBJECT_NAME": "STARLINK-35993", "OBJECT_ID": "2025-270V", "EPOCH": "2025-12-02T12:00:05.998752", "MEAN_MOTION": 15.80463961, "ECCENTRICITY": 0.0001768, "INCLINATION": 42.9992, "RA_OF_ASC_NODE": 253.7379, "ARG_OF_PERICENTER": 256.4363, "MEAN_ANOMALY": 48.2336, "EPHEMERIS_TYPE": 0, "CLASSIFICATION_TYPE": "U", "NORAD_CAT_ID": 66607, "ELEMENT_SET_NO": 999, "REV_AT_EPOCH": 265, "BSTAR": -0.010444, "MEAN_MOTION_DOT": -0.01799693, "MEAN_MOTION_DDOT": 0}, "tle": {"line1": "1 66607U 25270V   25336.50006943 -.01799693  00000+0 -10444-1 0  9996", "line2": "2 66607  42.9992 253.7379 0001768 256.4363  48.2336 15.80463961  2651"}}, "geometry": {"type": "Point", "coordinates": [62.76535658814528, 7.414433846464037]}}, {"type": "Feature", "properties": {"norad_id": 66608, "name": "STARLINK-36036", "group": "last-30-days", "lat": 4.795912789015783, "lon": 65.61790286646288, "alt_km": 333.64121518906995, "timestamp": "2025-12-02T23:34:14.292218+00:00", "meta": {"OBJECT_NAME": "STARLINK-36036", "OBJECT_ID": "2025-270W", "EPOCH": "2025-12-02T12:00:05.998752", "MEAN_MOTION": 15.80482231, "ECCENTRICITY": 0.0001672, "INCLINATION": 42.9993, "RA_OF_ASC_NODE": 253.7284, "ARG_OF_PERICENTER": 259.3724, "MEAN_ANOMALY": 49.1445, "EPHEMERIS_TYPE": 0, "CLASSIFICATION_TYPE": "U", "NORAD_CAT_ID": 66608, "ELEMENT_SET_NO": 999, "REV_AT_EPOCH": 259, "BSTAR": -0.010527, "MEAN_MOTION_DOT": -0.01813381, "MEAN_MOTION_DDOT": 0}, "tle": {"line1": "1 66608U 25270W   25336.50006943 -.01813381  00000+0 -10527-1 0  9990", "line2": "2 66608  42.9993 253.7284 0001672 259.3724  49.1445 15.80482231  2590"}}, "geometry": {"type": "Point", "coordinates": [65.61790286646288, 4.795912789015783]}}, {"type": "Feature", "properties": {"norad_id": 66609, "name": "STARLINK-36034", "group": "last-30-days", "lat": 3.492467108824129, "lon": 67.02358470932316, "alt_km": 333.82718088940874, "timestamp": "2025-12-02T23:34:14.292228+00:00", "meta": {"OBJECT_NAME": "STARLINK-36034", "OBJECT_ID": "2025-270X", "EPOCH": "2025-12-02T12:00:05.998752", "MEAN_MOTION": 15.80499154, "ECCENTRICITY": 0.0001679, "INCLINATION": 42.9992, "RA_OF_ASC_NODE": 253.7236, "ARG_OF_PERICENTER": 261.7784, "MEAN_ANOMALY": 48.6364, "EPHEMERIS_TYPE": 0, "CLASSIFICATION_TYPE": "U", "NORAD_CAT_ID": 66609, "ELEMENT_SET_NO": 999, "REV_AT_EPOCH": 259, "BSTAR": -0.010583, "MEAN_MOTION_DOT": -0.01823116, "MEAN_MOTION_DDOT": 0}, "tle": {"line1": "1 66609U 25270X   25336.50006943 -.01823116  00000+0 -10583-1 0  9990", "line2": "2 66609  42.9992 253.7236 0001679 261.7784  48.6364 15.80499154  2593"}}, "geometry": {"type": "Point", "coordinates": [67.02358470932316, 3.492467108824129]}}, {"type": "Feature", "properties": {"norad_id": 66610, "name": "STARLINK-35680", "group": "last-30-days", "lat": 2.1419452820804676, "lon": 68.47321205743023, "alt_km": 333.8969357824708, "timestamp": "2025-12-02T23:34:14.292242+00:00", "meta": {"OBJECT_NAME": "STARLINK-35680", "OBJECT_ID": "2025-270Y", "EPOCH": "2025-12-02T12:00:05.998752", "MEAN_MOTION": 15.80496796, "ECCENTRICITY": 0.0001775, "INCLINATION": 42.9991, "RA_OF_ASC_NODE": 253.7182, "ARG_OF_PERICENTER": 258.6137, "MEAN_ANOMALY": 53.798, "EPHEMERIS_TYPE": 0, "CLASSIFICATION_TYPE": "U", "NORAD_CAT_ID": 66610, "ELEMENT_SET_NO": 999, "REV_AT_EPOCH": 286, "BSTAR": -0.010638, "MEAN_MOTION_DOT": -0.01831332, "MEAN_MOTION_DDOT": 0}, "tle": {"line1": "1 66610U 25270Y   25336.50006943 -.01831332  00000+0 -10638-1 0  9992", "line2": "2 66610  42.9991 253.7182 0001775 258.6137  53.7980 15.80496796  2868"}}, "geometry": {"type": "Point", "coordinates": [68.47321205743023, 2.1419452820804676]}}]}